EXO-0                   
1 59175U 23174DK  26068.71046781  .00011582  00000+0  36716-3 0  9992
2 59175  97.3864 148.9039 0009878 157.1125 203.0559 15.32821991129797
STARLINK-34817          
1 65362U 25190M   26068.51201111  .00025769  00000+0  87945-3 0  9997
2 65362  53.1583 169.3105 0001181  88.8489 271.2647 15.30188520 29722
