[{"OBJECT_NAME":"EXO-0","OBJECT_ID":"2023-174DK","EPOCH":"2026-03-09T17:03:04.419648","MEAN_MOTION":15.32821991,"ECCENTRICITY":0.00098779,"INCLINATION":97.3864,"RA_OF_ASC_NODE":148.9039,"ARG_OF_PERICENTER":157.1125,"MEAN_ANOMALY":203.0559,"EPHEMERIS_TYPE":0,"CLASSIFICATION_TYPE":"U","NORAD_CAT_ID":59175,"ELEMENT_SET_NO":999,"REV_AT_EPOCH":12979,"BSTAR":0.00036716083,"MEAN_MOTION_DOT":0.00011582,"MEAN_MOTION_DDOT":0},{"OBJECT_NAME":"STARLINK-34817","OBJECT_ID":"2025-190M","EPOCH":"2026-03-09T12:17:17.759904","MEAN_MOTION":15.3018852,"ECCENTRICITY":0.00011812,"INCLINATION":53.1583,"RA_OF_ASC_NODE":169.3105,"ARG_OF_PERICENTER":88.8489,"MEAN_ANOMALY":271.2647,"EPHEMERIS_TYPE":0,"CLASSIFICATION_TYPE":"U","NORAD_CAT_ID":65362,"ELEMENT_SET_NO":999,"REV_AT_EPOCH":2972,"BSTAR":0.00087945293,"MEAN_MOTION_DOT":0.00025769,"MEAN_MOTION_DDOT":0}]
